#aV2019  5  3  0  0  0.00000000     288 DD+AD WGS84 FIT  NGA
## 2051 432000.00000000   300.00000000 58606 0.0000000000000
+   31     1  2  3  5  6  7  8  9 10 11 12 13 14 15 16 17 18
+         19 20 21 22 23 24 25 26 27 28 29 30 31 32  0  0  0
+          0  0  0  0  0  0  0  0  0  0  0  0  0  0  0  0  0
+          0  0  0  0  0  0  0  0  0  0  0  0  0  0  0  0  0
+          0  0  0  0  0  0  0  0  0  0  0  0  0  0  0  0  0
++         2  2  2  2  2  2  2  2  2  2  2  2  2  2  2  2  2
++         2  2  2  2  2  2  2  2  2  2  2  2  2  2  0  0  0
++         0  0  0  0  0  0  0  0  0  0  0  0  0  0  0  0  0
++         0  0  0  0  0  0  0  0  0  0  0  0  0  0  0  0  0
++         0  0  0  0  0  0  0  0  0  0  0  0  0  0  0  0  0
%c cc cc ccc ccc cccc cccc cccc cccc ccccc ccccc ccccc ccccc
%c cc cc ccc ccc cccc cccc cccc cccc ccccc ccccc ccccc ccccc
%f  0.0000000  0.000000000  0.00000000000  0.000000000000000
%f  0.0000000  0.000000000  0.00000000000  0.000000000000000
%i    0    0    0    0      0      0      0      0         0
%i    0    0    0    0      0      0      0      0         0
/*      NGA, ST. LOUIS,MO.                                  
/*   EPHEMERIS COMPUTED FROM 2 DAYS OF DATA                 
/*   EPOCHA v3 SMOOTHER                                     
/*   G1762 IERS2010 SATAF SATAPC                            
*  2019  5  3  9 50  0.00000000
P  1 -16915.859754  -4369.761799  19922.226870     -7.693454                    
V  1  -9998.555024 -23534.940830 -13215.958727     -0.086143                    
P  2  14489.807631  22087.879522  -2868.894266   -204.024486                    
V  2   -448.171863   5231.258241  31239.895212     -0.092461                    
P  3 -18903.846714   5555.175183  17734.835507    188.265024                    
V  3  11538.282418 -19528.282031  18459.105843     -0.002061                    
P  5   9180.565971  13485.843982 -21043.238431      1.017480                    
V  5 -15248.893492  21723.745452   7513.420750     -0.000787                    
P  6   5573.721647  24642.375472   8177.469322    215.325644                    
V  6  -6430.700978  -8365.516937  29789.945624     -0.097951                    
P  7 -11710.737276  10352.633099 -21162.127656    -16.824163                    
V  7 -12095.591138 -24769.861774  -5826.206631     -0.074688                    
P  8 -25354.013400  -5793.376189  -5875.282404   -142.178637                    
V  8   7593.049999  -1735.274030 -30670.197321     -0.014151                    
P  9 -19955.457779   9262.282412 -14930.221878    418.162264                    
V  9 -18705.817653  -3505.171700  22877.227432     -0.068127                    
P 10   9786.147093 -23420.751185   7530.323800     56.767884                    
V 10   7674.328043  -6280.413318 -29947.588159     -0.103321                    
P 11 -22233.103404  -5376.525427  12763.142909   -614.441720                    
V 11 -10960.121987 -13904.911872 -24210.806820      0.076959                    
P 12  18579.189780  -3684.561212  18328.603492    245.847589                    
V 12 -13770.211321  19369.981385  17815.059737     -0.034055                    
P 13  19763.163638  12837.361908 -12404.284176    -65.271881                    
V 13 -15639.901216  -1150.797999 -26302.617349      0.016097                    
P 14  -5440.705996 -15771.177324  21024.822081    -82.044115                    
V 14  25701.196749   3491.765752   9231.469589      0.015670                    
P 15  26164.172957   3342.850358  -4832.204030   -315.096595                    
V 15  -5742.172151   3439.658261 -29970.517102      0.020957                    
P 16  -8386.941290 -12726.043180 -21885.767566    -37.215468                    
V 16  17870.498091 -20700.220081   5657.315065     -0.028698                    
P 17  -4553.914448  14328.187073  22296.812538     48.748782                    
V 17 -26986.462507  -3922.508575  -3131.987767      0.061006                    
P 18 -18141.819961 -13270.871248  13766.672816     49.809879                    
V 18  -6491.551132 -17243.203186 -24188.004881      0.034277                    
P 19   4249.366298  15114.710111  21107.594686   -323.492086                    
V 19 -27123.271157  -4353.862793   8539.641357      0.045271                    
P 20  14170.810617 -22193.971389  -2893.610464    524.442992                    
V 20   1750.736504   4980.450636 -30863.397463      0.002752                    
P 21   6726.060547 -16309.689322 -19103.672356   -200.229572                    
V 21  13736.678338  22113.233906 -13345.016355      0.075170                    
P 22 -16767.895603  -2197.824511  20705.052946   -694.483754                    
V 22  12371.721804 -22783.237480   7762.819211     -0.065613                    
P 23 -26400.122665   1206.355983  -3990.641577   -187.765715                    
V 23  -5224.179162  -3340.011526  30568.307724      0.015444                    
P 24  18513.627127   7323.487633  17578.672962    -65.571534                    
V 24   9029.172460  20773.440791 -17679.348777     -0.005715                    
P 25  18960.405944 -15510.325257   9726.177541   -752.343063                    
V 25  -5231.923333  11868.625510  28755.203137     -0.040318                    
P 26   -642.984789 -20622.768596 -16645.320032    191.765695                    
V 26  13389.923804 -16563.146400  20201.884043      0.097481                    
P 27 -18189.727162 -11949.057793 -15535.475715   -122.753734                    
V 27  19428.357563    187.101764 -22751.860289     -0.091132                    
P 28 -12017.339387  22589.935578   7903.884818    767.749922                    
V 28  -7274.750229   5866.489259 -30063.284155      0.001706                    
P 29  23446.084819  -4366.596477 -11727.988027    210.785125                    
V 29  14389.997786   3862.400577  27400.659025     -0.092604                    
P 30  -4012.168894  20659.274030 -16069.151266    -97.662296                    
V 30 -10179.593251 -18039.237680 -20811.357594     -0.069924                    
P 31  -5792.503272 -24811.830934   6629.120684     40.805838                    
V 31   6221.814501   6582.548245  30505.180288     -0.026519                    
P 32   1276.403076 -15269.560488  21749.719567   -104.600106                    
V 32  27414.368066   2140.549985   -221.705999      0.172068                    
EOF
